{"type": "FeatureCollection", "features": [{"type": "Feature", "properties": {"norad_id": 2807, "name": "OPS 7218 (TRANSIT 16)", "group": "nnss", "lat": 22.08888989106648, "lon": 173.72048070364332, "alt_km": 1060.3309350100053, "timestamp": "2025-12-17T15:50:10.048032+00:00", "meta": {"OBJECT_NAME": "OPS 7218 (TRANSIT 16)", "OBJECT_ID": "1967-048A", "EPOCH": "2025-12-17T01:09:42.854688", "MEAN_MOTION": 13.50723111, "ECCENTRICITY": 0.00220957, "INCLINATION": 89.6731, "RA_OF_ASC_NODE": 353.8734, "ARG_OF_PERICENTER": 102.5845, "MEAN_ANOMALY": 323.6592, "EPHEMERIS_TYPE": 0, "CLASSIFICATION_TYPE": "U", "NORAD_CAT_ID": 2807, "ELEMENT_SET_NO": 999, "REV_AT_EPOCH": 88334, "BSTAR": 0.00017066936, "MEAN_MOTION_DOT": 1.2e-06, "MEAN_MOTION_DDOT": 0}, "tle": {"line1": "1 02807U 67048A   25351.04841267  .00000120  00000+0  17067-3 0  9996", "line2": "2 02807  89.6731 353.8734 0022095 102.5845 323.6592 13.50723111883349"}}, "geometry": {"type": "Point", "coordinates": [173.72048070364332, 22.08888989106648]}}, {"type": "Feature", "properties": {"norad_id": 2965, "name": "OPS 4947 (TRANSIT 17)", "group": "nnss", "lat": -88.89069306841536, "lon": -18.555958846548496, "alt_km": 1045.1995929466075, "timestamp": "2025-12-17T15:50:10.048054+00:00", "meta": {"OBJECT_NAME": "OPS 4947 (TRANSIT 17)", "OBJECT_ID": "1967-092A", "EPOCH": "2025-12-17T02:12:56.824704", "MEAN_MOTION": 13.53454596, "ECCENTRICITY": 0.00464632, "INCLINATION": 89.2493, "RA_OF_ASC_NODE": 24.1037, "ARG_OF_PERICENTER": 221.4925, "MEAN_ANOMALY": 165.3849, "EPHEMERIS_TYPE": 0, "CLASSIFICATION_TYPE": "U", "NORAD_CAT_ID": 2965, "ELEMENT_SET_NO": 999, "REV_AT_EPOCH": 87156, "BSTAR": 0.00020640394, "MEAN_MOTION_DOT": 1.51e-06, "MEAN_MOTION_DDOT": 0}, "tle": {"line1": "1 02965U 67092A   25351.09232436  .00000151  00000+0  20640-3 0  9992", "line2": "2 02965  89.2493  24.1037 0046463 221.4925 165.3849 13.53454596871562"}}, "geometry": {"type": "Point", "coordinates": [-18.555958846548496, -88.89069306841536]}}, {"type": "Feature", "properties": {"norad_id": 3133, "name": "OPS 7034 (TRANSIT 18)", "group": "nnss", "lat": 25.429655733799013, "lon": -86.36061650707823, "alt_km": 1100.5613273780818, "timestamp": "2025-12-17T15:50:10.048069+00:00", "meta": {"OBJECT_NAME": "OPS 7034 (TRANSIT 18)", "OBJECT_ID": "1968-012A", "EPOCH": "2025-12-17T07:25:07.942080", "MEAN_MOTION": 13.51566744, "ECCENTRICITY": 0.00742953, "INCLINATION": 90.0282, "RA_OF_ASC_NODE": 273.6518, "ARG_OF_PERICENTER": 155.9385, "MEAN_ANOMALY": 324.7957, "EPHEMERIS_TYPE": 0, "CLASSIFICATION_TYPE": "U", "NORAD_CAT_ID": 3133, "ELEMENT_SET_NO": 999, "REV_AT_EPOCH": 56980, "BSTAR": 0.00013899987, "MEAN_MOTION_DOT": 1.02e-06, "MEAN_MOTION_DDOT": 0}, "tle": {"line1": "1 03133U 68012A   25351.30911970  .00000102  00000+0  13900-3 0  9991", "line2": "2 03133  90.0282 273.6518 0074295 155.9385 324.7957 13.51566744569805"}}, "geometry": {"type": "Point", "coordinates": [-86.36061650707823, 25.429655733799013]}}, {"type": "Feature", "properties": {"norad_id": 4507, "name": "NNSS 19 (TRANSIT 19)", "group": "nnss", "lat": -5.013633048956435, "lon": -125.46231054774094, "alt_km": 1038.5072771500481, "timestamp": "2025-12-17T15:50:10.048081+00:00", "meta": {"OBJECT_NAME": "NNSS 19 (TRANSIT 19)", "OBJECT_ID": "1970-067A", "EPOCH": "2025-12-17T05:11:53.161728", "MEAN_MOTION": 13.51315974, "ECCENTRICITY": 0.01703252, "INCLINATION": 90.0052, "RA_OF_ASC_NODE": 234.537, "ARG_OF_PERICENTER": 280.2879, "MEAN_ANOMALY": 77.9108, "EPHEMERIS_TYPE": 0, "CLASSIFICATION_TYPE": "U", "NORAD_CAT_ID": 4507, "ELEMENT_SET_NO": 999, "REV_AT_EPOCH": 72282, "BSTAR": 0.00011984709, "MEAN_MOTION_DOT": 9.3e-07, "MEAN_MOTION_DDOT": 0}, "tle": {"line1": "1 04507U 70067A   25351.21658752  .00000093  00000+0  11985-3 0  9996", "line2": "2 04507  90.0052 234.5370 0170325 280.2879  77.9108 13.51315974722824"}}, "geometry": {"type": "Point", "coordinates": [-125.46231054774094, -5.013633048956435]}}, {"type": "Feature", "properties": {"norad_id": 6909, "name": "NNSS 20 (TRANSIT 20)", "group": "nnss", "lat": 61.62811844953887, "lon": -104.75314286718223, "alt_km": 873.1519008980822, "timestamp": "2025-12-17T15:50:10.048092+00:00", "meta": {"OBJECT_NAME": "NNSS 20 (TRANSIT 20)", "OBJECT_ID": "1973-081A", "EPOCH": "2025-12-17T06:47:20.238432", "MEAN_MOTION": 13.71436495, "ECCENTRICITY": 0.01565366, "INCLINATION": 89.8562, "RA_OF_ASC_NODE": 254.9861, "ARG_OF_PERICENTER": 64.8672, "MEAN_ANOMALY": 296.8638, "EPHEMERIS_TYPE": 0, "CLASSIFICATION_TYPE": "U", "NORAD_CAT_ID": 6909, "ELEMENT_SET_NO": 999, "REV_AT_EPOCH": 80423, "BSTAR": 0.00023522987, "MEAN_MOTION_DOT": 2.42e-06, "MEAN_MOTION_DDOT": 0}, "tle": {"line1": "1 06909U 73081A   25351.28287313  .00000242  00000+0  23523-3 0  9998", "line2": "2 06909  89.8562 254.9861 0156536  64.8672 296.8638 13.71436495804230"}}, "geometry": {"type": "Point", "coordinates": [-104.75314286718223, 61.62811844953887]}}, {"type": "Feature", "properties": {"norad_id": 10457, "name": "TRANSAT", "group": "nnss", "lat": -43.640505531908495, "lon": 78.08706437482604, "alt_km": 1097.8313282261051, "timestamp": "2025-12-17T15:50:10.048103+00:00", "meta": {"OBJECT_NAME": "TRANSAT", "OBJECT_ID": "1977-106A", "EPOCH": "2025-12-17T07:28:04.452096", "MEAN_MOTION": 13.48944277, "ECCENTRICITY": 0.00258313, "INCLINATION": 89.6481, "RA_OF_ASC_NODE": 78.4352, "ARG_OF_PERICENTER": 176.3254, "MEAN_ANOMALY": 247.7021, "EPHEMERIS_TYPE": 0, "CLASSIFICATION_TYPE": "U", "NORAD_CAT_ID": 10457, "ELEMENT_SET_NO": 999, "REV_AT_EPOCH": 36805, "BSTAR": 9.3572407e-05, "MEAN_MOTION_DOT": 6.9e-07, "MEAN_MOTION_DDOT": 0}, "tle": {"line1": "1 10457U 77106A   25351.31116264  .00000069  00000+0  93572-4 0  9992", "line2": "2 10457  89.6481  78.4352 0025831 176.3254 247.7021 13.48944277368055"}}, "geometry": {"type": "Point", "coordinates": [78.08706437482604, -43.640505531908495]}}, {"type": "Feature", "properties": {"norad_id": 12458, "name": "NOVA 1", "group": "nnss", "lat": 56.02376740131237, "lon": -88.90292365374941, "alt_km": 1156.7538214418782, "timestamp": "2025-12-17T15:50:10.048114+00:00", "meta": {"OBJECT_NAME": "NOVA 1", "OBJECT_ID": "1981-044A", "EPOCH": "2025-12-17T08:15:53.403840", "MEAN_MOTION": 13.23278916, "ECCENTRICITY": 0.00158995, "INCLINATION": 89.8528, "RA_OF_ASC_NODE": 91.3201, "ARG_OF_PERICENTER": 92.684, "MEAN_ANOMALY": 329.1679, "EPHEMERIS_TYPE": 0, "CLASSIFICATION_TYPE": "U", "NORAD_CAT_ID": 12458, "ELEMENT_SET_NO": 999, "REV_AT_EPOCH": 15247, "BSTAR": 6.6740266e-05, "MEAN_MOTION_DOT": 3.7e-07, "MEAN_MOTION_DDOT": 0}, "tle": {"line1": "1 12458U 81044A   25351.34436810  .00000037  00000+0  66740-4 0  9998", "line2": "2 12458  89.8528  91.3201 0015899  92.6840 329.1679 13.23278916152477"}}, "geometry": {"type": "Point", "coordinates": [-88.90292365374941, 56.02376740131237]}}, {"type": "Feature", "properties": {"norad_id": 15362, "name": "NOVA 3", "group": "nnss", "lat": -7.551946978779863, "lon": 80.60892094818051, "alt_km": 1158.19270358417, "timestamp": "2025-12-17T15:50:10.048124+00:00", "meta": {"OBJECT_NAME": "NOVA 3", "OBJECT_ID": "1984-110A", "EPOCH": "2025-12-17T07:06:03.071232", "MEAN_MOTION": 13.23045081, "ECCENTRICITY": 0.00301724, "INCLINATION": 90.1224, "RA_OF_ASC_NODE": 80.5884, "ARG_OF_PERICENTER": 318.9017, "MEAN_ANOMALY": 100.8942, "EPHEMERIS_TYPE": 0, "CLASSIFICATION_TYPE": "U", "NORAD_CAT_ID": 15362, "ELEMENT_SET_NO": 999, "REV_AT_EPOCH": 98759, "BSTAR": 0.00015642908, "MEAN_MOTION_DOT": 7.4e-07, "MEAN_MOTION_DDOT": 0}, "tle": {"line1": "1 15362U 84110A   25351.29586888  .00000074  00000+0  15643-3 0  9993", "line2": "2 15362  90.1224  80.5884 0030172 318.9017 100.8942 13.23045081987591"}}, "geometry": {"type": "Point", "coordinates": [80.60892094818051, -7.551946978779863]}}, {"type": "Feature", "properties": {"norad_id": 15935, "name": "OSCAR 30", "group": "nnss", "lat": -57.925682841359986, "lon": 100.19177490769637, "alt_km": 1208.015096396838, "timestamp": "2025-12-17T15:50:10.048135+00:00", "meta": {"OBJECT_NAME": "OSCAR 30", "OBJECT_ID": "1985-066A", "EPOCH": "2025-12-17T07:24:08.231040", "MEAN_MOTION": 13.36079068, "ECCENTRICITY": 0.01693219, "INCLINATION": 90.1655, "RA_OF_ASC_NODE": 99.9218, "ARG_OF_PERICENTER": 71.1599, "MEAN_ANOMALY": 343.2707, "EPHEMERIS_TYPE": 0, "CLASSIFICATION_TYPE": "U", "NORAD_CAT_ID": 15935, "ELEMENT_SET_NO": 999, "REV_AT_EPOCH": 96514, "BSTAR": 0.00011114412, "MEAN_MOTION_DOT": 7.2e-07, "MEAN_MOTION_DDOT": 0}, "tle": {"line1": "1 15935U 85066A   25351.30842860  .00000072  00000+0  11114-3 0  9994", "line2": "2 15935  90.1655  99.9218 0169321  71.1599 343.2707 13.36079068965147"}}, "geometry": {"type": "Point", "coordinates": [100.19177490769637, -57.925682841359986]}}, {"type": "Feature", "properties": {"norad_id": 15936, "name": "OSCAR 24", "group": "nnss", "lat": 14.679507115867636, "lon": 92.34539378430024, "alt_km": 1063.2165143728826, "timestamp": "2025-12-17T15:50:10.048145+00:00", "meta": {"OBJECT_NAME": "OSCAR 24", "OBJECT_ID": "1985-066B", "EPOCH": "2025-12-17T07:02:18.968640", "MEAN_MOTION": 13.35936414, "ECCENTRICITY": 0.01704117, "INCLINATION": 90.1792, "RA_OF_ASC_NODE": 92.3859, "ARG_OF_PERICENTER": 77.6323, "MEAN_ANOMALY": 336.9613, "EPHEMERIS_TYPE": 0, "CLASSIFICATION_TYPE": "U", "NORAD_CAT_ID": 15936, "ELEMENT_SET_NO": 999, "REV_AT_EPOCH": 96704, "BSTAR": 8.6982351e-05, "MEAN_MOTION_DOT": 5.8e-07, "MEAN_MOTION_DDOT": 0}, "tle": {"line1": "1 15936U 85066B   25351.29327510  .00000058  00000+0  86982-4 0  9993", "line2": "2 15936  90.1792  92.3859 0170411  77.6323 336.9613 13.35936414967048"}}, "geometry": {"type": "Point", "coordinates": [92.34539378430024, 14.679507115867636]}}]}